{
  "type": "FeatureCollection",
  "features": [
    {
      "type": "Feature",
      "properties": {
        "norad_id": 30480,
        "name": "FENGYUN 1C DEB",
        "group": "fengyun-1c-debris",
        "lat": 15.549361316438034,
        "lon": 7.329822555178381,
        "alt_km": 808.542145587131,
        "timestamp": "2025-12-21T05:44:51.862515+00:00",
        "meta_object_name": "FENGYUN 1C DEB",
        "meta_object_id": "1999-025AGS",
        "meta_epoch": "2025-12-20T18:12:47.078208",
        "meta_mean_motion": 14.33609271,
        "meta_eccentricity": 0.01666724,
        "meta_inclination": 98.2232,
        "meta_ra_of_asc_node": 9.1789,
        "meta_arg_of_pericenter": 121.8219,
        "meta_mean_anomaly": 296.8642,
        "meta_ephemeris_type": 0,
        "meta_classification_type": "U",
        "meta_norad_cat_id": 30480,
        "meta_element_set_no": 999,
        "meta_rev_at_epoch": 98783,
        "meta_bstar": 0.00013482134,
        "meta_mean_motion_dot": 3.93e-06,
        "meta_mean_motion_ddot": 0,
        "tle_line1": "1 30480U 99025AGS 25354.75887822  .00000393  00000+0  13482-3 0  9991",
        "tle_line2": "2 30480  98.2232   9.1789 0166672 121.8219 296.8642 14.33609271987837"
      },
      "geometry": {
        "type": "Point",
        "coordinates": [
          7.329822555178381,
          15.549361316438034
        ]
      }
    },
    {
      "type": "Feature",
      "properties": {
        "norad_id": 30481,
        "name": "FENGYUN 1C DEB",
        "group": "fengyun-1c-debris",
        "lat": -59.917532693388836,
        "lon": 26.97687358664045,
        "alt_km": 697.8709730149694,
        "timestamp": "2025-12-21T05:44:51.862526+00:00",
        "meta_object_name": "FENGYUN 1C DEB",
        "meta_object_id": "1999-025AGT",
        "meta_epoch": "2025-12-20T12:24:24.891264",
        "meta_mean_motion": 14.39066775,
        "meta_eccentricity": 0.02231417,
        "meta_inclination": 98.3364,
        "meta_ra_of_asc_node": 11.6114,
        "meta_arg_of_pericenter": 236.4824,
        "meta_mean_anomaly": 279.2705,
        "meta_ephemeris_type": 0,
        "meta_classification_type": "U",
        "meta_norad_cat_id": 30481,
        "meta_element_set_no": 999,
        "meta_rev_at_epoch": 98595,
        "meta_bstar": 0.00033850328,
        "meta_mean_motion_dot": 1.347e-05,
        "meta_mean_motion_ddot": 0,
        "tle_line1": "1 30481U 99025AGT 25354.51695476  .00001347  00000+0  33850-3 0  9999",
        "tle_line2": "2 30481  98.3364  11.6114 0223141 236.4824 279.2705 14.39066775985953"
      },
      "geometry": {
        "type": "Point",
        "coordinates": [
          26.97687358664045,
          -59.917532693388836
        ]
      }
    },
    {
      "type": "Feature",
      "properties": {
        "norad_id": 30489,
        "name": "FENGYUN 1C DEB",
        "group": "fengyun-1c-debris",
        "lat": 20.370535488138295,
        "lon": -167.11394499996206,
        "alt_km": 822.5364939061801,
        "timestamp": "2025-12-21T05:44:51.862536+00:00",
        "meta_object_name": "FENGYUN 1C DEB",
        "meta_object_id": "1999-025AHB",
        "meta_epoch": "2025-12-20T00:25:10.823232",
        "meta_mean_motion": 14.15828835,
        "meta_eccentricity": 0.01390427,
        "meta_inclination": 98.4679,
        "meta_ra_of_asc_node": 8.5533,
        "meta_arg_of_pericenter": 243.9025,
        "meta_mean_anomaly": 171.9483,
        "meta_ephemeris_type": 0,
        "meta_classification_type": "U",
        "meta_norad_cat_id": 30489,
        "meta_element_set_no": 999,
        "meta_rev_at_epoch": 97490,
        "meta_bstar": 0.00020156413,
        "meta_mean_motion_dot": 3.93e-06,
        "meta_mean_motion_ddot": 0,
        "tle_line1": "1 30489U 99025AHB 25354.01748638  .00000393  00000+0  20156-3 0  9996",
        "tle_line2": "2 30489  98.4679   8.5533 0139042 243.9025 171.9483 14.15828835974904"
      },
      "geometry": {
        "type": "Point",
        "coordinates": [
          -167.11394499996206,
          20.370535488138295
        ]
      }
    },
    {
      "type": "Feature",
      "properties": {
        "norad_id": 30490,
        "name": "FENGYUN 1C DEB",
        "group": "fengyun-1c-debris",
        "lat": -8.614200694420903,
        "lon": -53.361998644124526,
        "alt_km": 486.3407785795516,
        "timestamp": "2025-12-21T05:44:51.862546+00:00",
        "meta_object_name": "FENGYUN 1C DEB",
        "meta_object_id": "1999-025AHC",
        "meta_epoch": "2025-12-20T21:04:57.438912",
        "meta_mean_motion": 15.30002266,
        "meta_eccentricity": 0.00454703,
        "meta_inclination": 98.3294,
        "meta_ra_of_asc_node": 127.5053,
        "meta_arg_of_pericenter": 87.4136,
        "meta_mean_anomaly": 273.2306,
        "meta_ephemeris_type": 0,
        "meta_classification_type": "U",
        "meta_norad_cat_id": 30490,
        "meta_element_set_no": 999,
        "meta_rev_at_epoch": 99620,
        "meta_bstar": 0.0023826909,
        "meta_mean_motion_dot": 0.00071908,
        "meta_mean_motion_ddot": 0,
        "tle_line1": "1 30490U 99025AHC 25354.87844258  .00071908  00000+0  23827-2 0  9994",
        "tle_line2": "2 30490  98.3294 127.5053 0045470  87.4136 273.2306 15.30002266996209"
      },
      "geometry": {
        "type": "Point",
        "coordinates": [
          -53.361998644124526,
          -8.614200694420903
        ]
      }
    },
    {
      "type": "Feature",
      "properties": {
        "norad_id": 30492,
        "name": "FENGYUN 1C DEB",
        "group": "fengyun-1c-debris",
        "lat": -57.56666149795474,
        "lon": 36.53393232483059,
        "alt_km": 736.7723673373957,
        "timestamp": "2025-12-21T05:44:51.862556+00:00",
        "meta_object_name": "FENGYUN 1C DEB",
        "meta_object_id": "1999-025AHE",
        "meta_epoch": "2025-12-20T18:26:42.217152",
        "meta_mean_motion": 14.52033474,
        "meta_eccentricity": 0.00942675,
        "meta_inclination": 102.3243,
        "meta_ra_of_asc_node": 15.7217,
        "meta_arg_of_pericenter": 41.4166,
        "meta_mean_anomaly": 319.4111,
        "meta_ephemeris_type": 0,
        "meta_classification_type": "U",
        "meta_norad_cat_id": 30492,
        "meta_element_set_no": 999,
        "meta_rev_at_epoch": 97011,
        "meta_bstar": 0.0018252299,
        "meta_mean_motion_dot": 7.741e-05,
        "meta_mean_motion_ddot": 0,
        "tle_line1": "1 30492U 99025AHE 25354.76854418  .00007741  00000+0  18252-2 0  9993",
        "tle_line2": "2 30492 102.3243  15.7217 0094267  41.4166 319.4111 14.52033474970119"
      },
      "geometry": {
        "type": "Point",
        "coordinates": [
          36.53393232483059,
          -57.56666149795474
        ]
      }
    },
    {
      "type": "Feature",
      "properties": {
        "norad_id": 30493,
        "name": "FENGYUN 1C DEB",
        "group": "fengyun-1c-debris",
        "lat": -76.83509035418719,
        "lon": -35.196714911564854,
        "alt_km": 871.195022847528,
        "timestamp": "2025-12-21T05:44:51.862566+00:00",
        "meta_object_name": "FENGYUN 1C DEB",
        "meta_object_id": "1999-025AHF",
        "meta_epoch": "2025-12-20T11:25:06.698208",
        "meta_mean_motion": 13.93021799,
        "meta_eccentricity": 0.01807889,
        "meta_inclination": 98.5707,
        "meta_ra_of_asc_node": 184.2419,
        "meta_arg_of_pericenter": 195.3547,
        "meta_mean_anomaly": 194.8623,
        "meta_ephemeris_type": 0,
        "meta_classification_type": "U",
        "meta_norad_cat_id": 30493,
        "meta_element_set_no": 999,
        "meta_rev_at_epoch": 95203,
        "meta_bstar": 0.0021072549,
        "meta_mean_motion_dot": 3.094e-05,
        "meta_mean_motion_ddot": 0,
        "tle_line1": "1 30493U 99025AHF 25354.47577197  .00003094  00000+0  21073-2 0  9990",
        "tle_line2": "2 30493  98.5707 184.2419 0180788 195.3547 194.8623 13.93021799952038"
      },
      "geometry": {
        "type": "Point",
        "coordinates": [
          -35.196714911564854,
          -76.83509035418719
        ]
      }
    },
    {
      "type": "Feature",
      "properties": {
        "norad_id": 30494,
        "name": "FENGYUN 1C DEB",
        "group": "fengyun-1c-debris",
        "lat": 60.12368698690905,
        "lon": -133.00787281540968,
        "alt_km": 937.0017770283721,
        "timestamp": "2025-12-21T05:44:51.862580+00:00",
        "meta_object_name": "FENGYUN 1C DEB",
        "meta_object_id": "1999-025AHG",
        "meta_epoch": "2025-12-20T20:27:26.731872",
        "meta_mean_motion": 13.79394652,
        "meta_eccentricity": 0.01861717,
        "meta_inclination": 99.2815,
        "meta_ra_of_asc_node": 30.0747,
        "meta_arg_of_pericenter": 200.8117,
        "meta_mean_anomaly": 158.5384,
        "meta_ephemeris_type": 0,
        "meta_classification_type": "U",
        "meta_norad_cat_id": 30494,
        "meta_element_set_no": 999,
        "meta_rev_at_epoch": 94598,
        "meta_bstar": 0.0010375514,
        "meta_mean_motion_dot": 1.17e-05,
        "meta_mean_motion_ddot": 0,
        "tle_line1": "1 30494U 99025AHG 25354.85239273  .00001170  00000+0  10376-2 0  9990",
        "tle_line2": "2 30494  99.2815  30.0747 0186171 200.8117 158.5384 13.79394652945988"
      },
      "geometry": {
        "type": "Point",
        "coordinates": [
          -133.00787281540968,
          60.12368698690905
        ]
      }
    }
  ]
}